STARLINK-31003          
1 58520U 23191N   26068.41201170 -.00001336  00000+0 -39042-4 0  9990
2 58520  43.0017 104.5913 0000498 273.2566  86.8229 15.27576370125435
ION SCV-017             
1 63230U 25052W   26068.71648816  .00006457  00000+0  24539-3 0  9998
2 63230  97.4016 324.7516 0023746  44.9875 315.3282 15.26881798 54851
